#cP2013  3 17  0  0  0.00000000      97 d+D   IGb08 FIT AIUB
## 1732      0.00000000   900.00000000 56368 0.0000000000000
+   59   G01G02G03G04G05G06G07G08G09G10G11G12G13G14G15G16G17
+        G18G19G20G21G22G23G24G25G26G28G29G30G31G32R01R02R03
+        R04R05R06R07R08R09R10R11R12R13R14R15R16R17R18R19R20
+        R21R22R23R24E11E12E19E20  0  0  0  0  0  0  0  0  0
+          0  0  0  0  0  0  0  0  0  0  0  0  0  0  0  0  0
++         4  5  4  6  4  4  4  6  6  4  4  4  4  5  5  4  4
++         5  4  5  5  5  4  4  4  4  4  6  4  4  4  6  6  6
++         6  6  6  6  6  5  5  5  5  6  5  5  4  6  5  6  6
++         6  6  5  5  6  6  6  6  0  0  0  0  0  0  0  0  0
++         0  0  0  0  0  0  0  0  0  0  0  0  0  0  0  0  0
%c M  cc GPS ccc cccc cccc cccc cccc ccccc ccccc ccccc ccccc
%c cc cc ccc ccc cccc cccc cccc cccc ccccc ccccc ccccc ccccc
%f  1.2500000  1.025000000  0.00000000000  0.000000000000000
%f  0.0000000  0.000000000  0.00000000000  0.000000000000000
%i    0    0    0    0      0      0      0      0         0
%i    0    0    0    0      0      0      0      0         0
/* CODE MGEX ORBIT SOLUTION                                 
/* FOR DOY 13076                                            
/* INCLUDING ESTIMATED SATELLITE CLOCKS                     
/* PCV:IGS08      OL/AL:FES2004  NONE     YN ORB:CoN CLK:CoN
*  2013  3 17  5  0  0.00000000
PG01  13526.184827 -13513.029452  18386.218834      8.092194
PG02 -13768.614896 -11976.792885 -19271.699883    422.614592
PG03  24944.323334   8555.646817   3553.076732    181.664343
PG04  -7884.217286 -22284.612072 -12104.183526    163.532418
PG05 -21949.229142   -779.456261 -15063.290485   -388.126629
PG06  23151.545216  13395.896187   -558.707323    311.719279
PG07   6340.857178 -24682.230472  -6891.467937    192.063000
PG08   1309.569120 -25871.875408   4273.407120      5.140748
PG09 -12654.793736 -11436.203011  19786.048447    227.454420
PG10  -7938.049275 -13597.405280 -21689.234258    -73.545931
PG11  15333.720546  -6462.248015  20251.309365   -363.194245
PG12 -23909.928593  11295.658232    169.312228    123.280039
PG13   8243.565250 -12349.846516 -22163.146487    137.040480
PG14  10991.773394  19994.323404  13910.227946    220.958641
PG15 -21903.434062   -346.660487  15167.274469   -111.804922
PG16  21306.363461   1962.715628 -15964.066217   -252.611648
PG17 -12389.249878 -19772.315346  13120.638670     39.540082
PG18  -8067.437876  18684.544106  17277.427689    244.280718
PG19  22369.233964   5533.033279  13485.916029   -357.036575
PG20  22170.078414 -14466.459715  -1793.367922     88.518286
PG21  -3017.468885  25929.142751  -2349.508063   -286.508192
PG22   3961.427913  15830.043832  21129.164908    161.324493
PG23  16351.769175  -6149.415547 -20053.330465    104.245384
PG24 -14441.764044   9754.305948  20026.539886     -2.813819
PG25 -17517.490482  17083.296656 -10249.539201     78.608092
PG26 -22509.486657 -13246.821877   5101.947124    -63.693524
PG28    928.176190 -16191.887811  21580.556333    241.607715
PG29  -7529.640429  13137.974168 -21766.121435    417.483326
PG30  13292.560703   9143.334881 -21446.768375   -204.832732
PG31   8247.264271  20413.681661 -14469.538396    306.813191
PG32  25025.054360  -6133.028343   5338.407772   -543.721420
PR01 -18443.172059  -4209.001861 -17126.224900 999999.999999
PR02 -24897.545975   5562.821258   -546.624616 999999.999999
PR03 -17066.238953  11330.606214  15224.260649 999999.999999
PR04    918.258407  10987.539850  23011.014306 999999.999999
PR05  18310.187770   4275.257517  17218.849628 999999.999999
PR06  24959.125397  -5212.685912   1120.520930 999999.999999
PR07  17109.210857 -11294.802872 -15155.786957 999999.999999
PR08   -717.774711 -11003.409739 -22951.947271 999999.999999
PR09  12627.337178  -7908.996156 -20756.192634 999999.999999
PR10  10604.688934 -21568.271541  -8457.968741 999999.999999
PR11   2679.757243 -23565.549564   9505.359383 999999.999999
PR12  -7144.503531 -10920.649722  21856.885648 999999.999999
PR13 -12337.154997   7918.802399  20856.659964 999999.999999
PR14 -10552.783586  21729.261159   8281.677164 999999.999999
PR15  -1848.732496  22850.904142 -11058.867016 999999.999999
PR16   7301.357226  10718.240285 -22015.090388 999999.999999
PR17  -4699.666966  10627.550953 -22674.126587 999999.999999
PR18   9584.167879  19665.278779 -13176.411798 999999.999999
PR19  18564.715795  16365.527023   6188.703748 999999.999999
PR20  15361.684929   3028.641473  20168.907935 999999.999999
PR21   4615.211206 -10735.971137  22687.422727 999999.999999
PR22  -9317.877086 -19483.267944  13462.119572 999999.999999
PR23 -18431.466771 -17127.500910  -4202.477987 999999.999999
PR24 -16584.427681  -5041.342950 -18727.827947 999999.999999
PE11  23111.577487  17495.407909   6022.977012    380.911835
PE12  13285.287064  24219.763676 -10624.552922    398.581485
PE19 -19017.185097  16286.069045  15776.130009    495.432440
PE20 -28600.197670   7619.936974    186.251485     74.165805
*  2013  3 17  5 15  0.00000000
PG01  13618.378872 -11323.350746  19751.827737      8.094869
PG02 -13643.548804 -14131.833980 -17911.344592    422.616153
PG03  25099.719791   8964.338204    779.983206    181.668073
PG04  -7581.000241 -23502.930150  -9670.278635    163.541868
PG05 -20447.586157  -1832.892315 -16956.769395   -388.127496
PG06  22814.946127  13543.408326  -3340.723024    311.705774
PG07   6525.953195 -23721.835587  -9580.718744    192.066660
PG08   1536.310654 -26159.256838   1331.930539      5.142218
PG09 -12524.597917 -13724.168331  18398.419530    227.456884
PG10  -5790.475348 -14718.099912 -21599.253695    -73.547436
PG11  16025.831122  -4118.790401  20351.092384   -363.197749
PG12 -23837.273387  11025.249642   3074.003020    123.281948
PG13  10249.426363 -10864.705521 -22113.781269    137.038092
PG14   9535.949709  19155.294472  16021.069955    220.958529
PG15 -23204.212006  -1327.698606  13057.375945   -111.806178
PG16  19636.706753   2905.514146 -17823.052640   -252.611786
PG17 -10971.777500 -19046.469661  15290.104541     39.536452
PG18  -9781.559794  19369.003404  15473.410484    244.282222
PG19  23398.270162   6509.899196  11149.235756   -357.039349
PG20  22380.078075 -14182.623813   1000.396588     88.519826
PG21  -3389.305662  25425.969545  -5133.405348   -286.510247
PG22   1856.547167  16904.559435  20561.650303    161.325485
PG23  18194.151705  -4896.513089 -18810.196220    104.242203
PG24 -14511.525069   7405.899262  20963.406922     -2.814575
PG25 -18506.981045  17403.318075  -7616.754369     78.611103
PG26 -22798.474251 -13680.322771   2269.982520    -63.680442
PG28   3016.386623 -17139.816039  20592.842792    241.610473
PG29  -9609.375080  11750.840119 -21736.527258    417.486738
PG30  11341.644308  10552.998453 -21924.334321   -204.827287
PG31   8007.546249  21962.265296 -12157.162754    306.814837
PG32  24456.184465  -5538.743636   8059.522431   -543.724089
PR01 -16264.386326  -4702.950550 -19091.248239 999999.999999
PR02 -24612.890357   5607.379411  -3728.756932 999999.999999
PR03 -18695.463292  11882.122889  12669.761021 999999.999999
PR04  -1793.322594  11730.217648  22588.759191 999999.999999
PR05  16118.011227   4777.865222  19167.108760 999999.999999
PR06  24600.566466  -5251.247147   4299.331846 999999.999999
PR07  18739.576300 -11845.769807 -12596.239707 999999.999999
PR08   2001.021866 -11741.576390 -22504.107666 999999.999999
PR09  11840.354882  -5397.673059 -21981.173713 999999.999999
PR10  10093.250608 -20436.511186 -11396.572191 999999.999999
PR11   2750.739513 -24566.890241   6473.224344 999999.999999
PR12  -6485.188392 -13469.190342  20593.351663 999999.999999
PR13 -11574.633978   5373.872163  22068.496160 999999.999999
PR14 -10040.345900  20618.333553  11223.164492 999999.999999
PR15  -1973.687369  24048.036604  -8096.099005 999999.999999
PR16   6651.352372  13270.948575 -20801.605430 999999.999999
PR17  -6665.294807   8592.349897 -23042.895672 999999.999999
PR18   8432.418410  18298.513686 -15679.702020 999999.999999
PR19  19074.920568  16664.083322   3033.427494 999999.999999
PR20  17072.091090   4681.133649  18404.358004 999999.999999
PR21   6568.024098  -8698.176080  23068.089394 999999.999999
PR22  -8126.028905 -18104.387614  15944.987578 999999.999999
PR23 -18769.119987 -17246.352406  -1005.891931 999999.999999
PR24 -18185.672123  -6526.561253 -16667.522158 999999.999999
PE11  23445.295253  17759.237333   3375.882791    380.985981
PE12  12536.808394  23457.752682 -12979.412433    398.656644
PE19 -20277.735202  16709.221987  13616.488430    495.745147
PE20 -28483.043485   7646.694478  -2523.465405     74.239820
EOF
